{"type": "FeatureCollection", "features": [ {"type": "Feature", "properties": {"norad_id": 34736, "name": "COSMOS 2251 DEB", "group": "cosmos-2251-debris", "lat": -62.04414580657953, "lon": -115.69879556331702, "alt_km": 425.82101830352167, "timestamp": "2025-12-14T20:40:32.167949+00:00", "meta": {"OBJECT_NAME": "COSMOS 2251 DEB", "OBJECT_ID": "1993-036ZE", "EPOCH": "2025-12-14T04:06:55.953216", "MEAN_MOTION": 15.4904177, "ECCENTRICITY": 0.0017225, "INCLINATION": 74.0006, "RA_OF_ASC_NODE": 33.0875, "ARG_OF_PERICENTER": 344.7101, "MEAN_ANOMALY": 15.3588, "EPHEMERIS_TYPE": 0, "CLASSIFICATION_TYPE": "U", "NORAD_CAT_ID": 34736, "ELEMENT_SET_NO": 999, "REV_AT_EPOCH": 88470, "BSTAR": 0.0076627569, "MEAN_MOTION_DOT": 0.00441656, "MEAN_MOTION_DDOT": 0}, "tle": {"line1": "1 34736U 93036ZE  25348.17148094  .00441656  00000+0  76628-2 0  9996", "line2": "2 34736  74.0006  33.0875 0017225 344.7101  15.3588 15.49041770884700"}}, "geometry": {"type": "Point", "coordinates": [-115.69879556331702, -62.04414580657953]}}, {"type": "Feature", "properties": {"norad_id": 34738, "name": "COSMOS 2251 DEB", "group": "cosmos-2251-debris", "lat": 73.97500845697049, "lon": -127.11192319456175, "alt_km": 763.0285097608312, "timestamp": "2025-12-14T20:40:32.167959+00:00", "meta": {"OBJECT_NAME": "COSMOS 2251 DEB", "OBJECT_ID": "1993-036ZG", "EPOCH": "2025-12-14T04:29:30.306912", "MEAN_MOTION": 14.46306444, "ECCENTRICITY": 0.00474288, "INCLINATION": 74.0147, "RA_OF_ASC_NODE": 140.5608, "ARG_OF_PERICENTER": 286.5601, "MEAN_ANOMALY": 254.6941, "EPHEMERIS_TYPE": 0, "CLASSIFICATION_TYPE": "U", "NORAD_CAT_ID": 34738, "ELEMENT_SET_NO": 999, "REV_AT_EPOCH": 87879, "BSTAR": 0.00044197422, "MEAN_MOTION_DOT": 1.579e-05, "MEAN_MOTION_DDOT": 0}, "tle": {"line1": "1 34738U 93036ZG  25348.18715633  .00001579  00000+0  44197-3 0  9991", "line2": "2 34738  74.0147 140.5608 0047428 286.5601 254.6941 14.46306444878793"}}, "geometry": {"type": "Point", "coordinates": [-127.11192319456175, 73.97500845697049]}}, {"type": "Feature", "properties": {"norad_id": 34750, "name": "COSMOS 2251 DEB", "group": "cosmos-2251-debris", "lat": 2.8174238387432173, "lon": -161.48435446376118, "alt_km": 714.067434255815, "timestamp": "2025-12-14T20:40:32.167970+00:00", "meta": {"OBJECT_NAME": "COSMOS 2251 DEB", "OBJECT_ID": "1993-036ZU", "EPOCH": "2025-12-14T01:40:23.825280", "MEAN_MOTION": 14.61341561, "ECCENTRICITY": 0.00387628, "INCLINATION": 74.1082, "RA_OF_ASC_NODE": 199.2191, "ARG_OF_PERICENTER": 151.9097, "MEAN_ANOMALY": 7.7563, "EPHEMERIS_TYPE": 0, "CLASSIFICATION_TYPE": "U", "NORAD_CAT_ID": 34750, "ELEMENT_SET_NO": 999, "REV_AT_EPOCH": 88250, "BSTAR": 0.001187837, "MEAN_MOTION_DOT": 5.908e-05, "MEAN_MOTION_DDOT": 0}, "tle": {"line1": "1 34750U 93036ZU  25348.06972020  .00005908  00000+0  11878-2 0  9996", "line2": "2 34750  74.1082 199.2191 0038762 151.9097   7.7563 14.61341561882506"}}, "geometry": {"type": "Point", "coordinates": [-161.48435446376118, 2.8174238387432173]}}, {"type": "Feature", "properties": {"norad_id": 34752, "name": "COSMOS 2251 DEB", "group": "cosmos-2251-debris", "lat": 70.43707813722118, "lon": 50.06694950573749, "alt_km": 536.4966673720737, "timestamp": "2025-12-14T20:40:32.167980+00:00", "meta": {"OBJECT_NAME": "COSMOS 2251 DEB", "OBJECT_ID": "1993-036ZW", "EPOCH": "2025-12-14T07:31:16.629888", "MEAN_MOTION": 14.99978344, "ECCENTRICITY": 0.00476558, "INCLINATION": 74.0137, "RA_OF_ASC_NODE": 357.4022, "ARG_OF_PERICENTER": 125.4412, "MEAN_ANOMALY": 235.1238, "EPHEMERIS_TYPE": 0, "CLASSIFICATION_TYPE": "U", "NORAD_CAT_ID": 34752, "ELEMENT_SET_NO": 999, "REV_AT_EPOCH": 89873, "BSTAR": 0.001067257, "MEAN_MOTION_DOT": 0.00013574, "MEAN_MOTION_DDOT": 0}, "tle": {"line1": "1 34752U 93036ZW  25348.31338692  .00013574  00000+0  10673-2 0  9997", "line2": "2 34752  74.0137 357.4022 0047655 125.4412 235.1238 14.99978344898731"}}, "geometry": {"type": "Point", "coordinates": [50.06694950573749, 70.43707813722118]}}, {"type": "Feature", "properties": {"norad_id": 34754, "name": "COSMOS 2251 DEB", "group": "cosmos-2251-debris", "lat": -39.360321447317496, "lon": -149.90668643797596, "alt_km": 743.2192615160984, "timestamp": "2025-12-14T20:40:32.167990+00:00", "meta": {"OBJECT_NAME": "COSMOS 2251 DEB", "OBJECT_ID": "1993-036ZY", "EPOCH": "2025-12-13T18:31:07.827168", "MEAN_MOTION": 14.4048345, "ECCENTRICITY": 0.00296021, "INCLINATION": 74.03, "RA_OF_ASC_NODE": 225.6938, "ARG_OF_PERICENTER": 341.5652, "MEAN_ANOMALY": 87.89, "EPHEMERIS_TYPE": 0, "CLASSIFICATION_TYPE": "U", "NORAD_CAT_ID": 34754, "ELEMENT_SET_NO": 999, "REV_AT_EPOCH": 88148, "BSTAR": 0.00028866759, "MEAN_MOTION_DOT": 8.96e-06, "MEAN_MOTION_DDOT": 0}, "tle": {"line1": "1 34754U 93036ZY  25347.77161837  .00000896  00000+0  28867-3 0  9991", "line2": "2 34754  74.0300 225.6938 0029602 341.5652  87.8900 14.40483450881483"}}, "geometry": {"type": "Point", "coordinates": [-149.90668643797596, -39.360321447317496]}}, {"type": "Feature", "properties": {"norad_id": 34755, "name": "COSMOS 2251 DEB", "group": "cosmos-2251-debris", "lat": 69.44532248492403, "lon": 56.35988959876166, "alt_km": 1340.8230411603608, "timestamp": "2025-12-14T20:40:32.167999+00:00", "meta": {"OBJECT_NAME": "COSMOS 2251 DEB", "OBJECT_ID": "1993-036ZZ", "EPOCH": "2025-12-13T03:21:12.314304", "MEAN_MOTION": 13.50561141, "ECCENTRICITY": 0.04082739, "INCLINATION": 73.9258, "RA_OF_ASC_NODE": 289.3819, "ARG_OF_PERICENTER": 309.135, "MEAN_ANOMALY": 63.7698, "EPHEMERIS_TYPE": 0, "CLASSIFICATION_TYPE": "U", "NORAD_CAT_ID": 34755, "ELEMENT_SET_NO": 999, "REV_AT_EPOCH": 82529, "BSTAR": 0.0020583927, "MEAN_MOTION_DOT": 2.198e-05, "MEAN_MOTION_DDOT": 0}, "tle": {"line1": "1 34755U 93036ZZ  25347.13972586  .00002198  00000+0  20584-2 0  9997", "line2": "2 34755  73.9258 289.3819 0408273 309.1350  63.7698 13.50561141825297"}}, "geometry": {"type": "Point", "coordinates": [56.35988959876166, 69.44532248492403]}}, {"type": "Feature", "properties": {"norad_id": 34756, "name": "COSMOS 2251 DEB", "group": "cosmos-2251-debris", "lat": 42.0134007102739, "lon": -94.09517851002524, "alt_km": 1243.496774769038, "timestamp": "2025-12-14T20:40:32.168009+00:00", "meta": {"OBJECT_NAME": "COSMOS 2251 DEB", "OBJECT_ID": "1993-036AAA", "EPOCH": "2025-12-14T07:43:16.554432", "MEAN_MOTION": 13.67247227, "ECCENTRICITY": 0.03451481, "INCLINATION": 74.003, "RA_OF_ASC_NODE": 101.7681, "ARG_OF_PERICENTER": 337.239, "MEAN_ANOMALY": 21.3726, "EPHEMERIS_TYPE": 0, "CLASSIFICATION_TYPE": "U", "NORAD_CAT_ID": 34756, "ELEMENT_SET_NO": 999, "REV_AT_EPOCH": 83443, "BSTAR": 0.0011801909, "MEAN_MOTION_DOT": 1.473e-05, "MEAN_MOTION_DDOT": 0}, "tle": {"line1": "1 34756U 93036AAA 25348.32171938  .00001473  00000+0  11802-2 0  9990", "line2": "2 34756  74.0030 101.7681 0345148 337.2390  21.3726 13.67247227834431"}}, "geometry": {"type": "Point", "coordinates": [-94.09517851002524, 42.0134007102739]}}, {"type": "Feature", "properties": {"norad_id": 34758, "name": "COSMOS 2251 DEB", "group": "cosmos-2251-debris", "lat": -0.7463786413007805, "lon": 116.29512809656654, "alt_km": 1184.6134705118657, "timestamp": "2025-12-14T20:40:32.168020+00:00", "meta": {"OBJECT_NAME": "COSMOS 2251 DEB", "OBJECT_ID": "1993-036AAC", "EPOCH": "2025-12-14T07:27:02.913696", "MEAN_MOTION": 13.58075241, "ECCENTRICITY": 0.0381369, "INCLINATION": 74.1075, "RA_OF_ASC_NODE": 296.969, "ARG_OF_PERICENTER": 60.3125, "MEAN_ANOMALY": 303.538, "EPHEMERIS_TYPE": 0, "CLASSIFICATION_TYPE": "U", "NORAD_CAT_ID": 34758, "ELEMENT_SET_NO": 999, "REV_AT_EPOCH": 82931, "BSTAR": 0.0017653933, "MEAN_MOTION_DOT": 2.035e-05, "MEAN_MOTION_DDOT": 0}, "tle": {"line1": "1 34758U 93036AAC 25348.31045039  .00002035  00000+0  17654-2 0  9999", "line2": "2 34758  74.1075 296.9690 0381369  60.3125 303.5380 13.58075241829312"}}, "geometry": {"type": "Point", "coordinates": [116.29512809656654, -0.7463786413007805]}}, {"type": "Feature", "properties": {"norad_id": 34760, "name": "COSMOS 2251 DEB", "group": "cosmos-2251-debris", "lat": 3.391147637534103, "lon": 117.60375409475368, "alt_km": 898.2737689193727, "timestamp": "2025-12-14T20:40:32.168030+00:00", "meta": {"OBJECT_NAME": "COSMOS 2251 DEB", "OBJECT_ID": "1993-036AAE", "EPOCH": "2025-12-13T20:17:44.198880", "MEAN_MOTION": 14.19574474, "ECCENTRICITY": 0.00968203, "INCLINATION": 74.0637, "RA_OF_ASC_NODE": 300.3859, "ARG_OF_PERICENTER": 352.2673, "MEAN_ANOMALY": 34.8825, "EPHEMERIS_TYPE": 0, "CLASSIFICATION_TYPE": "U", "NORAD_CAT_ID": 34760, "ELEMENT_SET_NO": 999, "REV_AT_EPOCH": 86704, "BSTAR": 0.0010170256, "MEAN_MOTION_DOT": 2.224e-05, "MEAN_MOTION_DDOT": 0}, "tle": {"line1": "1 34760U 93036AAE 25347.84565045  .00002224  00000+0  10170-2 0  9999", "line2": "2 34760  74.0637 300.3859 0096820 352.2673  34.8825 14.19574474867041"}}, "geometry": {"type": "Point", "coordinates": [117.60375409475368, 3.391147637534103]}}, {"type": "Feature", "properties": {"norad_id": 34761, "name": "COSMOS 2251 DEB", "group": "cosmos-2251-debris", "lat": -54.07560857155753, "lon": -157.8361456485153, "alt_km": 795.1800913559282, "timestamp": "2025-12-14T20:40:32.168039+00:00", "meta": {"OBJECT_NAME": "COSMOS 2251 DEB", "OBJECT_ID": "1993-036AAF", "EPOCH": "2025-12-14T02:52:47.460864", "MEAN_MOTION": 14.38055334, "ECCENTRICITY": 0.00364605, "INCLINATION": 74.0296, "RA_OF_ASC_NODE": 0.2479, "ARG_OF_PERICENTER": 33.9455, "MEAN_ANOMALY": 326.4021, "EPHEMERIS_TYPE": 0, "CLASSIFICATION_TYPE": "U", "NORAD_CAT_ID": 34761, "ELEMENT_SET_NO": 999, "REV_AT_EPOCH": 87669, "BSTAR": 0.00073731935, "MEAN_MOTION_DOT": 2.224e-05, "MEAN_MOTION_DDOT": 0}, "tle": {"line1": "1 34761U 93036AAF 25348.11999376  .00002224  00000+0  73732-3 0  9993", "line2": "2 34761  74.0296   0.2479 0036460  33.9455 326.4021 14.38055334876691"}}, "geometry": {"type": "Point", "coordinates": [-157.8361456485153, -54.07560857155753]}}]}